start=new Date('2021-10-25T00:00:00.000Z').valueOf();
sats=[{"TLE_LINE1":"1 49172U 21082AU  21297.91667824 -.00012288  00000-0 -10127-3 0  9997","OBJECT_NAME":"STARLINK-3091","INCLINATION":"70.0004","PERIAPSIS":"357.030","NORAD_CAT_ID":"49172","PERIOD":"91.734","RCS_SIZE":"LARGE","OBJECT_TYPE":"PAYLOAD","ECCENTRICITY":"0.00038130","SEMIMAJOR_AXIS":"6737.734","RA_OF_ASC_NODE":"12.1375","ELEMENT_SET_NO":"999","REF_FRAME":"TEME","DECAY_DATE":null,"FILE":"3182768","SITE":"AFWTR","MEAN_MOTION_DDOT":"0.0000000000000","CENTER_NAME":"EARTH","EPHEMERIS_TYPE":"0","OBJECT_ID":"2021-082AU","MEAN_ELEMENT_THEORY":"SGP4","TLE_LINE2":"2 49172  70.0004  12.1375 0003813 287.0941 195.9482 15.69755469  3706","COUNTRY_CODE":"US","GP_ID":"188106815","MEAN_ANOMALY":"195.9482","CLASSIFICATION_TYPE":"U","ARG_OF_PERICENTER":"287.0941","MEAN_MOTION_DOT":"-0.00012288","TIME_SYSTEM":"UTC","LAUNCH_DATE":"2021-09-14","BSTAR":"-0.00010127000000","APOAPSIS":"362.168","REV_AT_EPOCH":"370","MEAN_MOTION":"15.69755469","EPOCH":"2021-10-24T22:00:00.999936"},{"SITE":"AFWTR","MEAN_MOTION_DDOT":"0.0000000000000","DECAY_DATE":null,"REF_FRAME":"TEME","FILE":"3182768","SEMIMAJOR_AXIS":"6737.689","RA_OF_ASC_NODE":"11.8274","ELEMENT_SET_NO":"999","ECCENTRICITY":"0.00036100","OBJECT_TYPE":"PAYLOAD","RCS_SIZE":"LARGE","NORAD_CAT_ID":"49173","PERIOD":"91.733","PERIAPSIS":"357.121","INCLINATION":"70.0001","OBJECT_NAME":"STARLINK-3045","TLE_LINE1":"1 49173U 21082AV  21297.91667824 -.00007668  00000-0 -62456-4 0  9997","EPOCH":"2021-10-24T22:00:00.999936","MEAN_MOTION":"15.69771142","REV_AT_EPOCH":"370","APOAPSIS":"361.986","BSTAR":"-0.00006245600000","LAUNCH_DATE":"2021-09-14","TIME_SYSTEM":"UTC","COUNTRY_CODE":"US","GP_ID":"188107262","MEAN_ANOMALY":"96.7996","CLASSIFICATION_TYPE":"U","MEAN_MOTION_DOT":"-0.00007668","ARG_OF_PERICENTER":"292.8118","OBJECT_ID":"2021-082AV","MEAN_ELEMENT_THEORY":"SGP4","TLE_LINE2":"2 49173  70.0001  11.8274 0003610 292.8118  96.7996 15.69771142  3707","CENTER_NAME":"EARTH","EPHEMERIS_TYPE":"0"},{"OBJECT_NAME":"STARLINK-3047","INCLINATION":"70.0012","TLE_LINE1":"1 49174U 21082AW  21297.91667824 -.00011290  00000-0 -92911-4 0  9993","RCS_SIZE":"LARGE","PERIAPSIS":"357.033","PERIOD":"91.734","NORAD_CAT_ID":"49174","OBJECT_TYPE":"PAYLOAD","FILE":"3182768","DECAY_DATE":null,"REF_FRAME":"TEME","MEAN_MOTION_DDOT":"0.0000000000000","SITE":"AFWTR","ECCENTRICITY":"0.00038350","SEMIMAJOR_AXIS":"6737.752","RA_OF_ASC_NODE":"12.1422","ELEMENT_SET_NO":"999","MEAN_MOTION_DOT":"-0.00011290","ARG_OF_PERICENTER":"287.9895","CLASSIFICATION_TYPE":"U","GP_ID":"188106704","COUNTRY_CODE":"US","MEAN_ANOMALY":"190.9583","TIME_SYSTEM":"UTC","EPHEMERIS_TYPE":"0","CENTER_NAME":"EARTH","TLE_LINE2":"2 49174  70.0012  12.1422 0003835 287.9895 190.9583 15.69749103  3706","MEAN_ELEMENT_THEORY":"SGP4","OBJECT_ID":"2021-082AW","BSTAR":"-0.00009291100000","APOAPSIS":"362.201","LAUNCH_DATE":"2021-09-14","REV_AT_EPOCH":"370","EPOCH":"2021-10-24T22:00:00.999936","MEAN_MOTION":"15.69749103"},{"TIME_SYSTEM":"UTC","MEAN_ANOMALY":"195.4869","GP_ID":"188107374","COUNTRY_CODE":"US","CLASSIFICATION_TYPE":"U","ARG_OF_PERICENTER":"289.7476","MEAN_MOTION_DOT":"-0.00012024","OBJECT_ID":"2021-082AX","MEAN_ELEMENT_THEORY":"SGP4","TLE_LINE2":"2 49175  70.0009  12.1347 0003720 289.7476 195.4869 15.69766225  3708","CENTER_NAME":"EARTH","EPHEMERIS_TYPE":"0","APOAPSIS":"362.074","BSTAR":"-0.00009900900000","LAUNCH_DATE":"2021-09-14","REV_AT_EPOCH":"370","EPOCH":"2021-10-24T22:00:00.999936","MEAN_MOTION":"15.69766225","INCLINATION":"70.0009","OBJECT_NAME":"STARLINK-3087","TLE_LINE1":"1 49175U 21082AX  21297.91667824 -.00012024  00000-0 -99009-4 0  9995","RCS_SIZE":"LARGE","NORAD_CAT_ID":"49175","PERIOD":"91.733","PERIAPSIS":"357.061","OBJECT_TYPE":"PAYLOAD","SITE":"AFWTR","MEAN_MOTION_DDOT":"0.0000000000000","DECAY_DATE":null,"REF_FRAME":"TEME","FILE":"3182768","RA_OF_ASC_NODE":"12.1347","SEMIMAJOR_AXIS":"6737.703","ELEMENT_SET_NO":"999","ECCENTRICITY":"0.00037200"},{"REV_AT_EPOCH":"370","MEAN_MOTION":"15.69759134","EPOCH":"2021-10-24T22:00:00.999936","EPHEMERIS_TYPE":"0","CENTER_NAME":"EARTH","TLE_LINE2":"2 49176  69.9998  12.1244 0003844 289.9958 203.8330 15.69759134  3701","MEAN_ELEMENT_THEORY":"SGP4","OBJECT_ID":"2021-082AY","MEAN_MOTION_DOT":"-0.00079548","ARG_OF_PERICENTER":"289.9958","COUNTRY_CODE":"US","GP_ID":"188107151","CLASSIFICATION_TYPE":"U","MEAN_ANOMALY":"203.8330","TIME_SYSTEM":"UTC","LAUNCH_DATE":"2021-09-14","BSTAR":"-0.00067055000000","APOAPSIS":"362.178","OBJECT_TYPE":"PAYLOAD","ECCENTRICITY":"0.00038440","ELEMENT_SET_NO":"999","SEMIMAJOR_AXIS":"6737.723","RA_OF_ASC_NODE":"12.1244","FILE":"3182768","REF_FRAME":"TEME","DECAY_DATE":null,"MEAN_MOTION_DDOT":"0.0000000000000","SITE":"AFWTR","TLE_LINE1":"1 49176U 21082AY  21297.91667824 -.00079548  00000-0 -67055-3 0  9995","OBJECT_NAME":"STARLINK-3069","INCLINATION":"69.9998","PERIAPSIS":"356.998","PERIOD":"91.734","NORAD_CAT_ID":"49176","RCS_SIZE":"LARGE"},{"MEAN_MOTION_DDOT":"0.0000000000000","SITE":"AFWTR","FILE":"3182768","DECAY_DATE":null,"REF_FRAME":"TEME","SEMIMAJOR_AXIS":"6737.751","RA_OF_ASC_NODE":"12.1331","ELEMENT_SET_NO":"999","ECCENTRICITY":"0.00038590","OBJECT_TYPE":"PAYLOAD","RCS_SIZE":"LARGE","PERIOD":"91.734","NORAD_CAT_ID":"49177","PERIAPSIS":"357.016","INCLINATION":"69.9992","OBJECT_NAME":"STARLINK-3103","TLE_LINE1":"1 49177U 21082AZ  21297.91667824 -.00011600  00000-0 -95514-4 0  9993","EPOCH":"2021-10-24T22:00:00.999936","MEAN_MOTION":"15.69749418","REV_AT_EPOCH":"370","APOAPSIS":"362.216","BSTAR":"-0.00009551400000","LAUNCH_DATE":"2021-09-14","TIME_SYSTEM":"UTC","ARG_OF_PERICENTER":"291.1335","MEAN_MOTION_DOT":"-0.00011600","MEAN_ANOMALY":"195.9974","GP_ID":"188106927","COUNTRY_CODE":"US","CLASSIFICATION_TYPE":"U","TLE_LINE2":"2 49177  69.9992  12.1331 0003859 291.1335 195.9974 15.69749418  3702","OBJECT_ID":"2021-082AZ","MEAN_ELEMENT_THEORY":"SGP4","EPHEMERIS_TYPE":"0","CENTER_NAME":"EARTH"},{"MEAN_MOTION":"15.69750587","EPOCH":"2021-10-24T22:00:00.999936","REV_AT_EPOCH":"370","LAUNCH_DATE":"2021-09-14","APOAPSIS":"362.291","BSTAR":"-0.00011292000000","TLE_LINE2":"2 49178  69.9995  12.1273 0003975 285.7085 205.9786 15.69750587  3703","MEAN_ELEMENT_THEORY":"SGP4","OBJECT_ID":"2021-082BA","EPHEMERIS_TYPE":"0","CENTER_NAME":"EARTH","TIME_SYSTEM":"UTC","MEAN_MOTION_DOT":"-0.00013673","ARG_OF_PERICENTER":"285.7085","GP_ID":"188107040","COUNTRY_CODE":"US","CLASSIFICATION_TYPE":"U","MEAN_ANOMALY":"205.9786","SEMIMAJOR_AXIS":"6737.748","ELEMENT_SET_NO":"999","RA_OF_ASC_NODE":"12.1273","ECCENTRICITY":"0.00039750","MEAN_MOTION_DDOT":"0.0000000000000","SITE":"AFWTR","FILE":"3182768","DECAY_DATE":null,"REF_FRAME":"TEME","OBJECT_TYPE":"PAYLOAD","PERIOD":"91.734","NORAD_CAT_ID":"49178","PERIAPSIS":"356.934","RCS_SIZE":"LARGE","TLE_LINE1":"1 49178U 21082BA  21297.91667824 -.00013673  00000-0 -11292-3 0  9996","INCLINATION":"69.9995","OBJECT_NAME":"STARLINK-3086"},{"TLE_LINE1":"1 49179U 21082BB  21297.91667824 -.00011057  00000-0 -90957-4 0  9997","INCLINATION":"70.0010","OBJECT_NAME":"STARLINK-3043","NORAD_CAT_ID":"49179","PERIOD":"91.734","PERIAPSIS":"357.233","RCS_SIZE":"LARGE","OBJECT_TYPE":"PAYLOAD","SEMIMAJOR_AXIS":"6737.749","RA_OF_ASC_NODE":"12.1304","ELEMENT_SET_NO":"999","ECCENTRICITY":"0.00035340","SITE":"AFWTR","MEAN_MOTION_DDOT":"0.0000000000000","REF_FRAME":"TEME","DECAY_DATE":null,"FILE":"3182768","MEAN_ELEMENT_THEORY":"SGP4","OBJECT_ID":"2021-082BB","TLE_LINE2":"2 49179  70.0010  12.1304 0003534 289.1360 200.3734 15.69750200  3709","CENTER_NAME":"EARTH","EPHEMERIS_TYPE":"0","TIME_SYSTEM":"UTC","CLASSIFICATION_TYPE":"U","GP_ID":"188107484","COUNTRY_CODE":"US","MEAN_ANOMALY":"200.3734","ARG_OF_PERICENTER":"289.1360","MEAN_MOTION_DOT":"-0.00011057","LAUNCH_DATE":"2021-09-14","APOAPSIS":"361.995","BSTAR":"-0.00009095700000","REV_AT_EPOCH":"370","MEAN_MOTION":"15.69750200","EPOCH":"2021-10-24T22:00:00.999936"},{"TLE_LINE1":"1 49180U 21082BC  21297.91667824 -.00015413  00000-0 -12746-3 0  9998","INCLINATION":"69.9993","OBJECT_NAME":"STARLINK-3050","NORAD_CAT_ID":"49180","PERIOD":"91.733","PERIAPSIS":"357.102","RCS_SIZE":"LARGE","OBJECT_TYPE":"PAYLOAD","SEMIMAJOR_AXIS":"6737.697","RA_OF_ASC_NODE":"12.1221","ELEMENT_SET_NO":"999","ECCENTRICITY":"0.00036510","SITE":"AFWTR","MEAN_MOTION_DDOT":"0.0000000000000","REF_FRAME":"TEME","DECAY_DATE":null,"FILE":"3182768","MEAN_ELEMENT_THEORY":"SGP4","OBJECT_ID":"2021-082BC","TLE_LINE2":"2 49180  69.9993  12.1221 0003651 289.7497 206.0209 15.69768300  3703","CENTER_NAME":"EARTH","EPHEMERIS_TYPE":"0","TIME_SYSTEM":"UTC","GP_ID":"188106816","COUNTRY_CODE":"US","MEAN_ANOMALY":"206.0209","CLASSIFICATION_TYPE":"U","ARG_OF_PERICENTER":"289.7497","MEAN_MOTION_DOT":"-0.00015413","LAUNCH_DATE":"2021-09-14","APOAPSIS":"362.022","BSTAR":"-0.00012746000000","REV_AT_EPOCH":"370","MEAN_MOTION":"15.69768300","EPOCH":"2021-10-24T22:00:00.999936"},{"REV_AT_EPOCH":"370","EPOCH":"2021-10-24T22:00:00.999936","MEAN_MOTION":"15.69737875","COUNTRY_CODE":"US","GP_ID":"188107263","CLASSIFICATION_TYPE":"U","MEAN_ANOMALY":"206.0832","MEAN_MOTION_DOT":"-0.00015476","ARG_OF_PERICENTER":"292.0133","TIME_SYSTEM":"UTC","CENTER_NAME":"EARTH","EPHEMERIS_TYPE":"0","OBJECT_ID":"2021-082BD","MEAN_ELEMENT_THEORY":"SGP4","TLE_LINE2":"2 49181  70.0005  12.1181 0003624 292.0133 206.0832 15.69737875  3705","BSTAR":"-0.00012815000000","APOAPSIS":"362.091","LAUNCH_DATE":"2021-09-14","OBJECT_TYPE":"PAYLOAD","DECAY_DATE":null,"REF_FRAME":"TEME","FILE":"3182768","SITE":"AFWTR","MEAN_MOTION_DDOT":"0.0000000000000","ECCENTRICITY":"0.00036240","SEMIMAJOR_AXIS":"6737.784","RA_OF_ASC_NODE":"12.1181","ELEMENT_SET_NO":"999","OBJECT_NAME":"STARLINK-3059","INCLINATION":"70.0005","TLE_LINE1":"1 49181U 21082BD  21297.91667824 -.00015476  00000-0 -12815-3 0  9995","RCS_SIZE":"LARGE","PERIAPSIS":"357.207","NORAD_CAT_ID":"49181","PERIOD":"91.735"}];
